SACN31 CWAO 311900
METAR
BGBW 131550Z 21010KT 8000 -RADZ BKN006 OVC012 03/00 Q1009 RMK 5SC
     8SC=
